{
  "type": "FeatureCollection",
  "features": [
    {
      "type": "Feature",
      "properties": {
        "zone_id": "efe39033-60bd-467d-aedd-4a0060eba0be",
        "name": "Velachery",
        "risk": "critical"
      },
      "geometry": {
        "type": "Polygon",
        "coordinates": [
          [
            [
              80.19800000000001,
              12.961500000000001
            ],
            [
              80.238,
              12.961500000000001
            ],
            [
              80.238,
              13.0015
            ],
            [
              80.19800000000001,
              13.0015
            ],
            [
              80.19800000000001,
              12.961500000000001
            ]
          ]
        ]
      }
    },
    {
      "type": "Feature",
      "properties": {
        "zone_id": "ede33f5e-5516-4451-9254-069b65c8ecfd",
        "name": "Adyar",
        "risk": "high"
      },
      "geometry": {
        "type": "Polygon",
        "coordinates": [
          [
            [
              80.23660000000001,
              12.9833
            ],
            [
              80.2766,
              12.9833
            ],
            [
              80.2766,
              13.023299999999999
            ],
            [
              80.23660000000001,
              13.023299999999999
            ],
            [
              80.23660000000001,
              12.9833
            ]
          ]
        ]
      }
    },
    {
      "type": "Feature",
      "properties": {
        "zone_id": "1bc0f0f8-9df0-4438-904a-164c76ae3ab8",
        "name": "Guindy",
        "risk": "low"
      },
      "geometry": {
        "type": "Polygon",
        "coordinates": [
          [
            [
              80.20060000000001,
              12.9867
            ],
            [
              80.2406,
              12.9867
            ],
            [
              80.2406,
              13.0267
            ],
            [
              80.20060000000001,
              13.0267
            ],
            [
              80.20060000000001,
              12.9867
            ]
          ]
        ]
      }
    },
    {
      "type": "Feature",
      "properties": {
        "zone_id": "0cc7c017-1230-4f57-bb1b-38e7712f9384",
        "name": "Tambaram",
        "risk": "medium"
      },
      "geometry": {
        "type": "Polygon",
        "coordinates": [
          [
            [
              80.1075,
              12.9029
            ],
            [
              80.1475,
              12.9029
            ],
            [
              80.1475,
              12.9429
            ],
            [
              80.1075,
              12.9429
            ],
            [
              80.1075,
              12.9029
            ]
          ]
        ]
      }
    },
    {
      "type": "Feature",
      "properties": {
        "zone_id": "71e03a10-ef79-403b-b35c-bc82545672d3",
        "name": "Sholinganallur",
        "risk": "critical"
      },
      "geometry": {
        "type": "Polygon",
        "coordinates": [
          [
            [
              80.20790000000001,
              12.881
            ],
            [
              80.2479,
              12.881
            ],
            [
              80.2479,
              12.921
            ],
            [
              80.20790000000001,
              12.921
            ],
            [
              80.20790000000001,
              12.881
            ]
          ]
        ]
      }
    }
  ]
}